IRIDIUM 116             
1 43072U 17083C   24263.90284854  .00000584  00000+0  20158-3 0  9997
2 43072  86.3964 227.4582 0002296  88.6482 271.4977 14.34213704353118
IRIDIUM 130             
1 43073U 17083D   24262.40599388  .00000925  00000+0  32320-3 0  9996
2 43073  86.3974 228.2967 0002255  91.1611 268.9843 14.34223580352849
IRIDIUM 151             
1 43074U 17083E   24263.42715245  .00000209  00000+0  67706-4 0  9994
2 43074  86.3968 227.6999 0002511  79.8918 280.2561 14.34212830353019
IRIDIUM 134             
1 43075U 17083F   24263.39544330 -.00000036  00000+0 -19863-4 0  9997
2 43075  86.3970 227.7128 0002233  91.1839 268.9612 14.34213686352972
IRIDIUM 137             
1 43076U 17083G   24263.61743041  .00000509  00000+0  17451-3 0  9996
2 43076  86.3970 227.6998 0002854  86.9608 273.1915 14.34215877353072
IRIDIUM 141             
1 43077U 17083H   24263.40179210  .00000395  00000+0  13402-3 0  9990
2 43077  86.3966 227.6572 0002294  84.1740 275.9717 14.34210442353041
IRIDIUM 153             
1 43078U 17083J   24263.77258519  .00001013  00000+0  35470-3 0  9998
2 43078  86.4035 196.0144 0002073  67.8920 292.2496 14.34219437354205
IRIDIUM 131             
1 43079U 17083K   24263.66816911 -.00000499  00000+0 -18538-3 0  9998
2 43079  86.3973 227.6895 0002160  83.2330 276.9112 14.34213114353012
